STARLINK-32640          
1 62198U 24229G   26068.55914773  .00025875  00000+0  94615-3 0  9992
2 62198  42.9959 271.2603 0000876 169.5848 190.5022 15.27592769 70547
FLOCK 4G-3              
1 62639U 25009AG  26068.80174065  .00011494  00000+0  43389-3 0  9993
2 62639  97.4062 151.4068 0001320 293.2042  66.9058 15.27179310 63727
